# From MPEC 2021-BE3
C/2020 W5 (Lemmon),h,11/30.0654/2020,88.5900,75.4807,24.4875,1.000683,3.364742,2000,15.0,4.0
# From MPEC 2022-L66
P/2020 WJ5 (Lemmon),e,22.2944,177.8107,338.2357,6.016330,0.0667893,0.17127513,34.2971,11/27.0/2022,2000,g  8.5,4.0
# From MPEC 2021-P47
P/2020 X1 (ATLAS),e,31.6925,55.9987,323.3825,4.529634,0.1022373,0.36554441,87.8465,11/27.0/2022,2000,g 13.0,4.0
# From MPEC 2021-U31
C/2020 X2 (ATLAS),e,18.1858,105.4341,347.3530,16.43709,0.0147900,0.76715775,10.9603,11/27.0/2022,2000,g 10.6,4.0
# From MPEC 2021-S45
C/2020 X4 (Leonard),e,80.6059,161.8821,140.3028,40.87094,0.0037721,0.87225140,2.7946,11/27.0/2022,2000,g  9.0,4.0
# From MPEC 2022-WD2
C/2020 Y2 (ATLAS),e,101.2978,26.5151,266.1113,1035,0.0000296,0.99697298,0.0000,06/17.7176/2022,2000,g  6.5,4.0
# From MPEC 2021-R75
C/2020 Y3 (ATLAS),e,83.1009,191.4423,341.9806,144.5162,0.0005673,0.98617857,0.0000,12/03.3611/2020,2000,g 13.5,4.0
# From MPEC 2022-H04
C/2021 A1 (Leonard),e,132.6954,255.8963,225.0994,31476,0.0000002,0.99998045,0.0000,01/03.2851/2022,2000,g  8.5,4.0
# From MPEC 2022-F14
C/2021 A2 (NEOWISE),e,106.9812,125.2163,338.7981,237.4664,0.0002693,0.99405313,0.0000,01/22.5051/2021,2000,g 13.5,4.0
# From MPEC 2022-ED3
C/2021 A4 (NEOWISE),e,111.5315,307.1137,204.7043,42.55919,0.0035499,0.97305097,0.0000,03/19.8476/2021,2000,g 16.0,4.0
# From MPEC 2021-BE3
P/2021 A5 (PANSTARRS),e,18.1854,328.7665,61.2933,3.047579,0.1852557,0.13989384,137.9421,11/27.0/2022,2000,g 15.0,4.0
# From MPEC 2022-K19
C/2021 A6 (PANSTARRS),e,75.6090,164.0781,351.6557,9799,0.0000010,0.99919104,0.0000,05/03.5655/2021,2000,g  7.0,4.0
# From MPEC 2022-M88
C/2021 A7 (NEOWISE),e,78.1504,154.5128,356.0250,2841,0.0000065,0.99930768,0.0000,07/15.2343/2021,2000,g 10.0,4.0
# From MPEC 2022-WD2
C/2021 A9 (PANSTARRS),h,12/01.4382/2023,158.0213,314.8427,211.4528,1.002798,7.760342,2000,6.0,4.0
# From MPEC 2021-N06
C/2021 A10 (NEOWISE),e,151.9129,188.6620,82.3545,88.73375,0.0011792,0.98577554,0.0000,03/15.2051/2021,2000,g 19.0,4.0
# From MPEC 2022-L66
C/2021 B2 (PANSTARRS),e,38.0869,120.5381,334.9674,355.6855,0.0001469,0.99293703,0.0000,05/04.3055/2021,2000,g 14.0,4.0
# From MPEC 2021-N06
C/2021 B3 (NEOWISE),e,119.4816,67.2857,293.5458,34.62881,0.0048367,0.93760852,3.0291,11/27.0/2022,2000,g 13.5,4.0
# From MPEC 2022-ED3
C/2021 C1 (Rankin),e,143.0455,186.8997,336.2657,20019,0.0000003,0.99982622,0.0000,12/07.0173/2020,2000,g 11.5,4.0
# From MPEC 2021-U31
P/2021 C2 (PANSTARRS),e,21.9326,66.4659,78.7417,9.534186,0.0334795,0.48727092,21.4702,11/27.0/2022,2000,g 12.0,4.0
# From MPEC 2021-N06
C/2021 C3 (Catalina),e,122.1643,181.9279,357.0979,62.37665,0.0020006,0.96352880,1.3059,11/27.0/2022,2000,g 14.0,4.0
# From MPEC 2022-M88
C/2021 C4 (ATLAS),h,01/17.0920/2021,132.8539,194.2779,320.2164,1.000011,4.502959,2000,9.0,4.0
# From MPEC 2022-QD9
C/2021 C5 (PANSTARRS),e,50.7817,323.6854,270.9215,2769,0.0000068,0.99882923,0.0000,02/11.0785/2023,2000,g  9.0,4.0
# From MPEC 2022-F14
C/2021 C6 (Lemmon),h,11/13.2594/2021,164.6257,332.1551,203.5566,1.001158,3.271391,2000,12.0,4.0
# From MPEC 2022-F14
C/2021 D1 (SWAN),e,31.4415,311.2540,72.2608,99.50506,0.0009930,0.99093505,0.0000,02/27.7088/2021,2000,g 13.0,4.0
# From MPEC 2022-P82
C/2021 D2 (ZTF),h,02/03.9864/2022,83.8230,305.6804,125.0286,1.001691,2.946261,2000,9.0,4.0
# From MPEC 2022-UY9
A/2021 E2,e,167.4882,190.8233,342.4163,229.6380,0.0002832,0.99004548,0.0000,12/10.4364/2020,2000,g 15.0,2.0
# From MPEC 2022-WD2
C/2021 E3 (ZTF),h,06/11.9125/2022,112.5543,104.4716,228.8524,1.000908,1.777402,2000,8.5,4.0
# From MPEC 2022-UY9
A/2021 E4,e,116.3612,171.1731,48.2660,624.6818,0.0000631,0.99251470,0.0000,04/25.2274/2022,2000,g 13.5,2.0
# From MPEC 2022-QD9
C/2021 F1 (Lemmon-PANSTARRS),e,107.3263,203.4534,146.8174,230.6078,0.0002814,0.99568347,0.0000,04/06.8619/2022,2000,g 13.5,4.0
# From MPEC 2021-J72
C/2021 G1 (Leonard),e,131.5531,270.6999,107.4599,74.52119,0.0015321,0.95406412,0.7552,11/27.0/2022,2000,g 14.0,4.0
# From MPEC 2022-WD2
C/2021 G2 (ATLAS),e,48.4729,221.1014,343.3455,4921,0.0000029,0.99898797,0.0000,09/09.8133/2024,2000,g  5.5,4.0
# From MPEC 2022-M21
C/2021 G3 (PANSTARRS),h,10/18.3117/2021,102.8782,147.4132,10.6148,1.000564,5.180579,2000,10.5,4.0
# From MPEC 2021-Y10
P/2021 HS (PANSTARRS),e,12.1665,262.3876,46.1046,4.194582,0.1147284,0.80997702,54.8034,11/27.0/2022,2000,g 22.0,4.0
# From MPEC 2022-C56
C/2021 J1 (Maury-Attard),e,92.7215,88.3454,147.3314,26.41133,0.0072614,0.93408222,4.6878,11/27.0/2022,2000,g 15.5,4.0
# From MPEC 2022-M88
C/2021 J2 (PANSTARRS),e,156.2126,23.3336,172.0414,117.9920,0.0007690,0.96011679,0.3312,11/27.0/2022,2000,g 12.0,4.0
# From MPEC 2021-S45
P/2021 J3 (ATLAS),e,14.5366,111.1699,126.0496,8.937674,0.0368865,0.44954539,45.7857,11/27.0/2022,2000,g  7.0,4.0
# From MPEC 2022-O08
C/2021 K1 (ATLAS),e,16.2757,140.9030,184.2801,12.68158,0.0218245,0.80301245,12.4759,11/27.0/2022,2000,g 11.0,4.0
# From MPEC 2022-O01
C/2021 K2 (MASTER),h,09/09.4488/2021,100.8521,282.2481,343.3576,1.001080,5.467766,2000,8.0,4.0
# From MPEC 2022-L66
C/2021 K3 (Catalina),h,02/03.0549/2022,134.7780,114.4548,182.0396,1.003083,5.229853,2000,10.0,4.0
# From MPEC 2021-W31
P/2021 L2 (Leonard),e,21.0697,266.6570,51.5124,4.049411,0.1209529,0.52127243,59.3432,11/27.0/2022,2000,g 17.0,4.0
# From MPEC 2022-UE6
C/2021 L3 (Borisov),h,02/13.8739/2022,78.5793,344.9721,91.6031,1.002733,8.457849,2000,6.0,4.0
# From MPEC 2022-ST7
P/2021 L4 (PANSTARRS),e,16.9597,243.2133,234.4743,3.165834,0.1749733,0.11834281,206.7246,11/27.0/2022,2000,g 13.5,4.0
# From MPEC 2022-TA0
P/2021 N1 (ZTF),e,11.5012,301.1637,21.2154,2.977607,0.1918240,0.67655833,103.2978,11/27.0/2022,2000,g 19.0,4.0
# From MPEC 2022-WD2
P/2021 N2 (Fuls),e,13.0618,221.7390,177.4061,6.935515,0.0539617,0.45249972,20.4163,11/27.0/2022,2000,g  9.5,4.0
# From MPEC 2022-OB6
C/2021 N3 (PANSTARRS),e,26.7409,337.4933,304.7594,155.3719,0.0005089,0.96321374,0.4220,11/27.0/2022,2000,g  8.5,4.0
# From MPEC 2022-A21
C/2021 O1 (Nishimura),e,27.5838,41.6148,74.4195,2349,0.0000087,0.99966534,0.0000,08/13.9578/2021,2000,g 10.5,4.0
# From MPEC 2022-L66
C/2021 O3 (PANSTARRS),h,04/21.0458/2022,56.7940,189.0190,299.9800,1.000081,0.287258,2000,10.5,4.0
# From MPEC 2022-CN4
C/2021 P1 (PANSTARRS),e,51.6365,359.6762,40.4457,2565,0.0000076,0.99829470,0.0000,06/02.2788/2022,2000,g 11.0,4.0
# From MPEC 2022-VC5
C/2021 P2 (PANSTARRS),e,150.0633,32.0782,76.6780,2463,0.0000081,0.99794220,0.0000,01/22.6128/2023,2000,g  9.0,4.0
# From MPEC 2021-W31
P/2021 P3 (PANSTARRS),e,27.1616,358.2394,334.1023,4.413080,0.1063142,0.33928717,58.0143,11/27.0/2022,2000,g 14.0,4.0
# From MPEC 2022-P82
C/2021 P4 (ATLAS),e,56.3105,348.0940,175.8166,319.3233,0.0001727,0.99661651,0.0000,07/30.3651/2022,2000,g  9.5,4.0
# From MPEC 2022-UY9
C/2021 Q3 (ATLAS),e,77.7696,307.9090,114.0937,75.43338,0.0015044,0.93100308,0.4586,11/27.0/2022,2000,g  8.0,4.0
# From MPEC 2022-WD2
C/2021 Q4 (Fuls),h,06/10.0522/2023,71.4729,183.3338,146.9722,1.003261,7.564893,2000,6.0,4.0
# From MPEC 2022-C56
P/2021 Q5 (ATLAS),e,10.7363,239.7568,180.9124,3.286401,0.1654334,0.62444104,75.0247,11/27.0/2022,2000,g 15.0,4.0
# From MPEC 2022-WD2
C/2021 Q6 (PANSTARRS),e,161.8475,133.5337,140.9039,15497,0.0000005,0.99943793,0.0000,03/23.0322/2024,2000,g  6.0,4.0
# From MPEC 2022-WD2
C/2021 QM45 (PANSTARRS),e,22.8223,354.5887,72.8106,353.5513,0.0001483,0.99215592,0.0000,08/13.4552/2022,2000,g 11.0,4.0
# From MPEC 2022-TA0
P/2021 R1 (PANSTARRS),e,5.5193,143.3705,220.3652,8.360555,0.0407710,0.41559309,14.0482,11/27.0/2022,2000,g 11.0,4.0
# From MPEC 2022-TA0
C/2021 R2 (PANSTARRS),e,134.4809,16.2945,32.4122,2413,0.0000083,0.99696919,0.0000,12/26.4746/2021,2000,g  7.5,4.0
# From MPEC 2021-W31
P/2021 R3 (PANSTARRS),e,19.9274,304.2072,2.8186,3.773460,0.1344604,0.33121880,73.9196,11/27.0/2022,2000,g 16.0,4.0
# From MPEC 2021-W31
P/2021 R4 (Wierzchos),e,21.0385,321.2592,56.6620,5.620009,0.0739773,0.58601011,30.2556,11/27.0/2022,2000,g 16.0,4.0
# From MPEC 2022-CN4
P/2021 R5 (Rankin),e,7.8547,219.9596,167.4047,4.793413,0.0939154,0.30674796,29.9304,11/27.0/2022,2000,g 12.0,4.0
# From MPEC 2021-W31
P/2021 R6 (Groeller),e,34.9269,176.1145,220.7651,6.277097,0.0626709,0.59333416,24.5040,11/27.0/2022,2000,g 14.5,4.0
# From MPEC 2022-ST7
C/2021 R7 (PANSTARRS),e,158.8449,170.1422,140.2631,888.0405,0.0000372,0.99363759,0.0000,04/16.5041/2021,2000,g 10.5,4.0
# From MPEC 2021-Y10
P/2021 R8 (Sheppard),e,2.2034,167.0277,190.7966,3.017288,0.1880524,0.29356833,78.1394,11/27.0/2022,2000,g 18.5,4.0
# From MPEC 2022-WD2
C/2021 S1 (ATLAS),h,02/28.9907/2022,52.0797,299.8774,148.1882,1.001640,6.119234,2000,7.0,4.0
# From MPEC 2022-WD2
C/2021 S3 (PANSTARRS),e,58.5343,215.6251,6.8825,33695,0.0000002,0.99996083,0.0000,02/14.7452/2024,2000,g  5.5,4.0
# From MPEC 2022-WD2
C/2021 S4 (Tsuchinshan),e,17.4801,5.4970,72.7719,164.4897,0.0004672,0.95932131,359.8130,11/27.0/2022,2000,g  6.5,4.0
# From MPEC 2022-OB6
C/2021 T1 (Lemmon),e,140.3519,56.8335,51.5250,1260,0.0000220,0.99757183,0.0000,10/14.0631/2021,2000,g 12.5,4.0
# From MPEC 2022-ED3
C/2021 T2 (Fuls),h,06/07.8969/2022,117.5318,223.2317,263.5961,1.000263,1.247740,2000,12.0,4.0
# From MPEC 2022-WD2
C/2021 T4 (Lemmon),h,07/31.4936/2023,160.7678,257.8339,329.7745,1.000226,1.482899,2000,7.5,4.0
# From MPEC 2022-ED3
P/2021 U1 (Wierzchos),e,30.5561,246.7823,145.0841,8.518479,0.0396425,0.71290674,16.7265,11/27.0/2022,2000,g 14.5,4.0
# From MPEC 2022-L66
P/2021 U3 (Attard-Maury),e,69.9584,75.1044,335.2264,4.192224,0.1148252,0.54986879,45.7150,11/27.0/2022,2000,g 15.5,4.0
# From MPEC 2021-W31
C/2021 U4 (Leonard),e,152.8784,241.8116,237.2848,44.68974,0.0032991,0.95999900,1.1219,11/27.0/2022,2000,g 17.0,4.0
# From MPEC 2022-QD9
C/2021 U5 (Catalina),e,39.0506,182.7551,321.4551,217.0075,0.0003083,0.98911129,0.0000,01/26.5827/2022,2000,g 13.0,4.0
# From MPEC 2022-CN4
C/2021 V1 (Rankin),e,71.4541,207.6541,195.1187,608.9528,0.0000656,0.99505124,0.0000,04/30.4048/2022,2000,g 13.0,4.0
# From MPEC 2022-WD2
